OBJECT_NAME,OBJECT_ID,EPOCH,MEAN_MOTION,ECCENTRICITY,INCLINATION,RA_OF_ASC_NODE,ARG_OF_PERICENTER,MEAN_ANOMALY,EPHEMERIS_TYPE,CLASSIFICATION_TYPE,NORAD_CAT_ID,ELEMENT_SET_NO,REV_AT_EPOCH,BSTAR,MEAN_MOTION_DOT,MEAN_MOTION_DDOT
INTELSAT 902 (IS-902),2001-039A,2026-07-12T03:00:20.545056,1.00270877,.00044294,6.1779,71.4773,36.7964,176.7254,0,U,26900,999,9094,0,-.287E-5,0
INTELSAT 904 (IS-904),2002-007A,2026-07-11T23:40:30.588960,1.00271421,.00053904,6.9792,68.8833,23.6733,160.9889,0,U,27380,999,5201,0,-.229E-5,0
DIRECTV 5 (TEMPO 1),2002-023A,2026-07-12T07:22:38.750880,1.00271057,.00030188,4.9393,74.9957,42.4796,173.2757,0,U,27426,999,8837,0,-.6E-6,0
INTELSAT 905 (IS-905),2002-027A,2026-07-12T05:52:38.821728,1.00270961,.00034587,6.8138,69.4945,44.3064,127.2933,0,U,27438,999,5161,0,.89E-6,0
GALAXY 3C (G-3C),2002-030A,2026-07-12T07:14:38.791104,1.00270714,.00014966,3.7957,77.6488,37.5176,188.8621,0,U,27445,999,4674,0,-.155E-5,0
INTELSAT 906 (IS-906),2002-041A,2026-07-12T04:22:21.654048,1.00272531,.00039109,5.8638,72.6133,21.1552,326.0360,0,U,27513,999,8727,0,.9E-7,0
GALAXY 13 (HORIZONS-1),2003-044A,2026-07-12T06:00:38.767680,1.00269965,.00021642,1.4821,83.5453,24.6362,122.1149,0,U,27954,999,4682,0,.133E-5,0
INTELSAT 10-02,2004-022A,2026-07-11T23:49:12.660096,1.00270427,.00005927,0.0519,255.9518,328.8445,61.3886,0,U,28358,999,8080,0,-.8E-7,0
DIRECTV 8,2005-019A,2026-07-12T05:36:38.949696,1.00271120,.00030294,0.0205,76.1722,49.8366,129.2280,0,U,28659,999,7732,0,.4E-7,0
GALAXY 28 (G-28),2005-022A,2026-07-12T04:49:41.553696,1.00270916,.00023131,3.3610,78.6270,30.1375,226.6470,0,U,28702,999,5222,0,-.201E-5,0
GALAXY 16 (G-16),2006-023A,2026-07-12T07:14:38.791104,1.00271226,.00024434,0.0367,112.5847,8.6264,178.6450,0,U,29236,999,7322,0,-.125E-5,0
DIRECTV 9S,2006-043A,2026-07-12T04:28:29.431200,1.00270977,.000499,2.4826,80.6012,32.8547,142.5473,0,U,29494,999,5163,0,-.113E-5,0
GALAXY 17 (G-17),2007-016B,2026-07-12T05:22:48.357984,1.00270557,.00035503,3.0323,79.5853,33.3180,172.8914,0,U,31307,999,7005,0,-.207E-5,0
INTELSAT 11 (IS-11),2007-044B,2026-07-12T05:01:55.381728,0.99051203,.00040738,3.6279,78.3654,100.4098,202.5186,0,U,32253,999,6869,0,-.87E-6,0
HORIZONS-2,2007-063B,2026-07-12T04:36:15.156576,1.00270162,.00035415,2.6639,80.3195,18.3335,186.6993,0,U,32388,999,6806,0,-.254E-5,0
DIRECTV 11,2008-013A,2026-07-12T05:29:53.772576,1.00272707,.0000193,0.0131,265.5675,253.6452,114.1984,0,U,32729,999,4584,0,-.124E-5,0
GALAXY 18 (G-18),2008-024A,2026-07-12T05:44:38.620032,1.00270349,.00028305,0.0293,51.8695,75.4445,125.9860,0,U,32951,999,4610,0,0,0
GALAXY 19 (G-19),2008-045A,2026-07-12T04:29:44.310624,1.00272129,.00023314,0.0533,243.6306,237.1759,139.7058,0,U,33376,999,6515,0,-.137E-5,0
FM-5,2009-034A,2026-07-12T04:32:52.979712,1.00269675,.00004599,0.0392,272.2343,53.8200,306.0870,0,U,35493,999,4689,0,-.197E-5,0
INTELSAT 14 (IS-14),2009-064A,2026-07-12T08:04:26.846112,1.00270867,.00022162,0.0157,34.9315,83.5902,247.8315,0,U,36097,999,6085,0,-.272E-5,0
INTELSAT 15 (IS-15),2009-067A,2026-07-12T03:29:38.637312,1.00271125,.00020877,0.0153,59.8714,60.0676,307.6668,0,U,36106,999,4147,0,-.182E-5,0
DIRECTV 12,2009-075A,2026-07-12T05:41:08.651616,1.00271294,.00003737,0.0056,130.7281,91.8166,50.1401,0,U,36131,999,4680,0,-.101E-5,0
INTELSAT 16 (IS-16),2010-006A,2026-07-12T04:35:37.716000,1.00270842,.00022785,0.0066,35.8128,100.1835,146.7953,0,U,36397,999,5990,0,-.242E-5,0
XM-5,2010-053A,2026-07-12T05:36:38.949696,1.00271548,.00017937,0.0640,265.8042,321.4095,31.8827,0,U,37185,999,5773,0,-.21E-6,0
INTELSAT 17 (IS-17),2010-065B,2026-07-12T04:32:21.943104,1.00272019,.0002641,0.0204,92.0139,24.9881,307.1687,0,U,37238,999,5349,0,.1E-7,0
INTELSAT 28 (IS-28),2011-016A,2026-07-12T07:48:38.702880,1.00271656,.00036695,1.8686,82.3097,39.0443,254.3065,0,U,37392,999,5353,0,-.225E-5,0
INTELSAT 18 (IS-18),2011-056A,2026-07-12T04:21:38.558592,1.00273001,.00017143,0.0192,302.2276,185.8431,47.4232,0,U,37834,999,5406,0,.56E-6,0
INTELSAT 22 (IS-22),2012-011A,2026-07-12T04:32:21.943104,1.00271219,.00019386,0.0406,70.6732,62.7633,296.8296,0,U,38098,999,743,0,0,0
INTELSAT 19 (IS-19),2012-030A,2026-07-12T07:55:38.707968,1.00271112,.00030706,0.0143,43.2090,81.6564,90.2664,0,U,38356,999,5070,0,-.55E-6,0
INTELSAT 20 (IS-20),2012-043A,2026-07-12T04:32:21.943104,1.00270629,.00011318,0.0124,61.9506,108.1621,256.5584,0,U,38740,999,5099,0,-.22E-6,0
INTELSAT 21 (IS-21),2012-045A,2026-07-12T07:04:45.238656,1.00270808,.0001722,0.0174,30.9335,102.6756,204.7618,0,U,38749,999,5077,0,-.283E-5,0
