INTELSAT 902 (IS-902)   
1 26900U 01039A   26193.12523779 -.00000287  00000+0  00000+0 0  9993
2 26900   6.1779  71.4773 0004429  36.7964 176.7254  1.00270877 90948
INTELSAT 904 (IS-904)   
1 27380U 02007A   26192.98646515 -.00000229  00000+0  00000+0 0  9995
2 27380   6.9792  68.8833 0005390  23.6733 160.9889  1.00271421 52019
DIRECTV 5 (TEMPO 1)     
1 27426U 02023A   26193.30739295 -.00000060  00000+0  00000+0 0  9992
2 27426   4.9393  74.9957 0003018  42.4796 173.2757  1.00271057 88377
INTELSAT 905 (IS-905)   
1 27438U 02027A   26193.24489377  .00000089  00000+0  00000+0 0  9995
2 27438   6.8138  69.4945 0003458  44.3064 127.2933  1.00270961 51616
GALAXY 3C (G-3C)        
1 27445U 02030A   26193.30183786 -.00000155  00000+0  00000+0 0  9994
2 27445   3.7957  77.6488 0001496  37.5176 188.8621  1.00270714 46741
INTELSAT 906 (IS-906)   
1 27513U 02041A   26193.18219507  .00000009  00000+0  00000+0 0  9996
2 27513   5.8638  72.6133 0003910  21.1552 326.0360  1.00272531 87276
GALAXY 13 (HORIZONS-1)  
1 27954U 03044A   26193.25044870  .00000133  00000+0  00000+0 0  9994
2 27954   1.4821  83.5453 0002164  24.6362 122.1149  1.00269965 46827
INTELSAT 10-02          
1 28358U 04022A   26192.99250764 -.00000008  00000+0  00000+0 0  9993
2 28358   0.0519 255.9518 0000592 328.8445  61.3886  1.00270427 80809
DIRECTV 8               
1 28659U 05019A   26193.23378414  .00000004  00000+0  00000+0 0  9990
2 28659   0.0205  76.1722 0003029  49.8366 129.2280  1.00271120 77321
GALAXY 28 (G-28)        
1 28702U 05022A   26193.20117539 -.00000201  00000+0  00000+0 0  9999
2 28702   3.3610  78.6270 0002313  30.1375 226.6470  1.00270916 52226
GALAXY 16 (G-16)        
1 29236U 06023A   26193.30183786 -.00000125  00000+0  00000+0 0  9997
2 29236   0.0367 112.5847 0002443   8.6264 178.6450  1.00271226 73223
DIRECTV 9S              
1 29494U 06043A   26193.18645175 -.00000113  00000+0  00000+0 0  9993
2 29494   2.4826  80.6012 0004990  32.8547 142.5473  1.00270977 51634
GALAXY 17 (G-17)        
1 31307U 07016B   26193.22417081 -.00000207  00000+0  00000+0 0  9992
2 31307   3.0323  79.5853 0003550  33.3180 172.8914  1.00270557 70056
INTELSAT 11 (IS-11)     
1 32253U 07044B   26193.20966877 -.00000087  00000+0  00000+0 0  9990
2 32253   3.6279  78.3654 0004073 100.4098 202.5186  0.99051203 68695
HORIZONS-2              
1 32388U 07063B   26193.19184209 -.00000254  00000+0  00000+0 0  9995
2 32388   2.6639  80.3195 0003541  18.3335 186.6993  1.00270162 68065
DIRECTV 11              
1 32729U 08013A   26193.22909459 -.00000124  00000+0  00000+0 0  9992
2 32729   0.0131 265.5675 0000193 253.6452 114.1984  1.00272707 45841
GALAXY 18 (G-18)        
1 32951U 08024A   26193.23933588  .00000000  00000+0  00000+0 0  9994
2 32951   0.0293  51.8695 0002830  75.4445 125.9860  1.00270349 46100
GALAXY 19 (G-19)        
1 33376U 08045A   26193.18731841 -.00000137  00000+0  00000+0 0  9993
2 33376   0.0533 243.6306 0002331 237.1759 139.7058  1.00272129 65156
FM-5                    
1 35493U 09034A   26193.18950208 -.00000197  00000+0  00000+0 0  9990
2 35493   0.0392 272.2343 0000459  53.8200 306.0870  1.00269675 46896
INTELSAT 14 (IS-14)     
1 36097U 09064A   26193.33642183 -.00000272  00000+0  00000+0 0  9995
2 36097   0.0157  34.9315 0002216  83.5902 247.8315  1.00270867 60853
INTELSAT 15 (IS-15)     
1 36106U 09067A   26193.14558608 -.00000182  00000+0  00000+0 0  9996
2 36106   0.0153  59.8714 0002087  60.0676 307.6668  1.00271125 41474
DIRECTV 12              
1 36131U 09075A   26193.23690569 -.00000101  00000+0  00000+0 0  9997
2 36131   0.0056 130.7281 0000373  91.8166  50.1401  1.00271294 46808
INTELSAT 16 (IS-16)     
1 36397U 10006A   26193.19140875 -.00000242  00000+0  00000+0 0  9998
2 36397   0.0066  35.8128 0002278 100.1835 146.7953  1.00270842 59908
XM-5                    
1 37185U 10053A   26193.23378414 -.00000021  00000+0  00000+0 0  9998
2 37185   0.0640 265.8042 0001793 321.4095  31.8827  1.00271548 57736
INTELSAT 17 (IS-17)     
1 37238U 10065B   26193.18914286  .00000001  00000+0  00000+0 0  9994
2 37238   0.0204  92.0139 0002641  24.9881 307.1687  1.00272019 53495
INTELSAT 28 (IS-28)     
1 37392U 11016A   26193.32544795 -.00000225  00000+0  00000+0 0  9991
2 37392   1.8686  82.3097 0003669  39.0443 254.3065  1.00271656 53530
INTELSAT 18 (IS-18)     
1 37834U 11056A   26193.18169628  .00000056  00000+0  00000+0 0  9999
2 37834   0.0192 302.2276 0001714 185.8431  47.4232  1.00273001 54065
INTELSAT 22 (IS-22)     
1 38098U 12011A   26193.18914286  .00000000  00000+0  00000+0 0  9991
2 38098   0.0406  70.6732 0001938  62.7633 296.8296  1.00271219  7432
INTELSAT 19 (IS-19)     
1 38356U 12030A   26193.33030912 -.00000055  00000+0  00000+0 0  9992
2 38356   0.0143  43.2090 0003070  81.6564  90.2664  1.00271112 50707
INTELSAT 20 (IS-20)     
1 38740U 12043A   26193.18914286 -.00000022  00000+0  00000+0 0  9995
2 38740   0.0124  61.9506 0001131 108.1621 256.5584  1.00270629 50998
INTELSAT 21 (IS-21)     
1 38749U 12045A   26193.29496804 -.00000283  00000+0  00000+0 0  9998
2 38749   0.0174  30.9335 0001722 102.6756 204.7618  1.00270808 50770
